{
  "type": "FeatureCollection",
  "features": [
    {
      "type": "Feature",
      "properties": {
        "norad_id": 35220,
        "name": "FENGYUN 1C DEB",
        "group": "fengyun-1c-debris",
        "lat": 35.888316096034615,
        "lon": 43.04554525478833,
        "alt_km": 802.814809348326,
        "timestamp": "2025-12-05T18:53:13.569566+00:00",
        "meta_object_name": "FENGYUN 1C DEB",
        "meta_object_id": "1999-025DQC",
        "meta_epoch": "2025-12-03T04:15:21.001824",
        "meta_mean_motion": 14.22451281,
        "meta_eccentricity": 0.0043073,
        "meta_inclination": 99.0282,
        "meta_ra_of_asc_node": 46.9795,
        "meta_arg_of_pericenter": 335.8269,
        "meta_mean_anomaly": 24.0886,
        "meta_ephemeris_type": 0,
        "meta_classification_type": "U",
        "meta_norad_cat_id": 35220,
        "meta_element_set_no": 999,
        "meta_rev_at_epoch": 63047,
        "meta_bstar": 0.0020517631,
        "meta_mean_motion_dot": 4.572e-05,
        "meta_mean_motion_ddot": 0,
        "tle_line1": "1 35220U 99025DQC 25337.17732641  .00004572  00000+0  20518-2 0  9993",
        "tle_line2": "2 35220  99.0282  46.9795 0043073 335.8269  24.0886 14.22451281630475"
      },
      "geometry": {
        "type": "Point",
        "coordinates": [
          43.04554525478833,
          35.888316096034615
        ]
      }
    },
    {
      "type": "Feature",
      "properties": {
        "norad_id": 35223,
        "name": "FENGYUN 1C DEB",
        "group": "fengyun-1c-debris",
        "lat": 53.69799305978793,
        "lon": 153.77193577624396,
        "alt_km": 661.6821541914205,
        "timestamp": "2025-12-05T18:53:13.569576+00:00",
        "meta_object_name": "FENGYUN 1C DEB",
        "meta_object_id": "1999-025DQF",
        "meta_epoch": "2025-12-04T10:04:09.074208",
        "meta_mean_motion": 14.88719801,
        "meta_eccentricity": 0.0129552,
        "meta_inclination": 98.9701,
        "meta_ra_of_asc_node": 319.808,
        "meta_arg_of_pericenter": 353.1134,
        "meta_mean_anomaly": 6.8294,
        "meta_ephemeris_type": 0,
        "meta_classification_type": "U",
        "meta_norad_cat_id": 35223,
        "meta_element_set_no": 999,
        "meta_rev_at_epoch": 93758,
        "meta_bstar": 0.0020662,
        "meta_mean_motion_dot": 0.00022565,
        "meta_mean_motion_ddot": 0,
        "tle_line1": "1 35223U 99025DQF 25338.41954947  .00022565  00000+0  20662-2 0  9991",
        "tle_line2": "2 35223  98.9701 319.8080 0129552 353.1134   6.8294 14.88719801937582"
      },
      "geometry": {
        "type": "Point",
        "coordinates": [
          153.77193577624396,
          53.69799305978793
        ]
      }
    },
    {
      "type": "Feature",
      "properties": {
        "norad_id": 35229,
        "name": "FENGYUN 1C DEB",
        "group": "fengyun-1c-debris",
        "lat": -47.707665180247645,
        "lon": -130.78036428922354,
        "alt_km": 666.810176351556,
        "timestamp": "2025-12-05T18:53:13.569586+00:00",
        "meta_object_name": "FENGYUN 1C DEB",
        "meta_object_id": "1999-025DQM",
        "meta_epoch": "2025-12-02T10:53:02.570208",
        "meta_mean_motion": 14.59759705,
        "meta_eccentricity": 0.0047395,
        "meta_inclination": 98.4598,
        "meta_ra_of_asc_node": 55.2366,
        "meta_arg_of_pericenter": 244.9664,
        "meta_mean_anomaly": 114.661,
        "meta_ephemeris_type": 0,
        "meta_classification_type": "U",
        "meta_norad_cat_id": 35229,
        "meta_element_set_no": 999,
        "meta_rev_at_epoch": 64356,
        "meta_bstar": 0.0066057982,
        "meta_mean_motion_dot": 0.00032123,
        "meta_mean_motion_ddot": 0,
        "tle_line1": "1 35229U 99025DQM 25336.45350197  .00032123  00000+0  66058-2 0  9996",
        "tle_line2": "2 35229  98.4598  55.2366 0047395 244.9664 114.6610 14.59759705643561"
      },
      "geometry": {
        "type": "Point",
        "coordinates": [
          -130.78036428922354,
          -47.707665180247645
        ]
      }
    },
    {
      "type": "Feature",
      "properties": {
        "norad_id": 35231,
        "name": "FENGYUN 1C DEB",
        "group": "fengyun-1c-debris",
        "lat": -78.95018773809925,
        "lon": 151.29282833501233,
        "alt_km": 876.8110341758493,
        "timestamp": "2025-12-05T18:53:13.569596+00:00",
        "meta_object_name": "FENGYUN 1C DEB",
        "meta_object_id": "1999-025DQP",
        "meta_epoch": "2025-12-03T09:37:38.629920",
        "meta_mean_motion": 14.14526664,
        "meta_eccentricity": 0.00379467,
        "meta_inclination": 98.7218,
        "meta_ra_of_asc_node": 20.7837,
        "meta_arg_of_pericenter": 111.0247,
        "meta_mean_anomaly": 249.4992,
        "meta_ephemeris_type": 0,
        "meta_classification_type": "U",
        "meta_norad_cat_id": 35231,
        "meta_element_set_no": 999,
        "meta_rev_at_epoch": 91370,
        "meta_bstar": 4.4434007e-05,
        "meta_mean_motion_dot": 4.3e-07,
        "meta_mean_motion_ddot": 0,
        "tle_line1": "1 35231U 99025DQP 25337.40114155  .00000043  00000+0  44434-4 0  9999",
        "tle_line2": "2 35231  98.7218  20.7837 0037946 111.0247 249.4992 14.14526664913701"
      },
      "geometry": {
        "type": "Point",
        "coordinates": [
          151.29282833501233,
          -78.95018773809925
        ]
      }
    },
    {
      "type": "Feature",
      "properties": {
        "norad_id": 35233,
        "name": "FENGYUN 1C DEB",
        "group": "fengyun-1c-debris",
        "lat": 16.637445497043455,
        "lon": 76.08194166102349,
        "alt_km": 755.8774078749584,
        "timestamp": "2025-12-05T18:53:13.569606+00:00",
        "meta_object_name": "FENGYUN 1C DEB",
        "meta_object_id": "1999-025DQR",
        "meta_epoch": "2025-11-29T12:57:02.668608",
        "meta_mean_motion": 14.41620526,
        "meta_eccentricity": 0.00411297,
        "meta_inclination": 98.7712,
        "meta_ra_of_asc_node": 72.3131,
        "meta_arg_of_pericenter": 300.6155,
        "meta_mean_anomaly": 71.0123,
        "meta_ephemeris_type": 0,
        "meta_classification_type": "U",
        "meta_norad_cat_id": 35233,
        "meta_element_set_no": 999,
        "meta_rev_at_epoch": 90986,
        "meta_bstar": 0.0016467683,
        "meta_mean_motion_dot": 5.371e-05,
        "meta_mean_motion_ddot": 0,
        "tle_line1": "1 35233U 99025DQR 25333.53961422  .00005371  00000+0  16468-2 0  9991",
        "tle_line2": "2 35233  98.7712  72.3131 0041129 300.6155  71.0123 14.41620526909863"
      },
      "geometry": {
        "type": "Point",
        "coordinates": [
          76.08194166102349,
          16.637445497043455
        ]
      }
    },
    {
      "type": "Feature",
      "properties": {
        "norad_id": 35234,
        "name": "FENGYUN 1C DEB",
        "group": "fengyun-1c-debris",
        "lat": -81.67199644056352,
        "lon": 112.10578675613442,
        "alt_km": 615.5160673753362,
        "timestamp": "2025-12-05T18:53:13.569616+00:00",
        "meta_object_name": "FENGYUN 1C DEB",
        "meta_object_id": "1999-025DQS",
        "meta_epoch": "2025-12-03T08:18:28.433952",
        "meta_mean_motion": 14.65458273,
        "meta_eccentricity": 0.0099684,
        "meta_inclination": 98.0697,
        "meta_ra_of_asc_node": 5.4534,
        "meta_arg_of_pericenter": 292.4804,
        "meta_mean_anomaly": 66.5869,
        "meta_ephemeris_type": 0,
        "meta_classification_type": "U",
        "meta_norad_cat_id": 35234,
        "meta_element_set_no": 999,
        "meta_rev_at_epoch": 94218,
        "meta_bstar": 0.00088961,
        "meta_mean_motion_dot": 5.131e-05,
        "meta_mean_motion_ddot": 0,
        "tle_line1": "1 35234U 99025DQS 25337.34616243  .00005131  00000+0  88961-3 0  9995",
        "tle_line2": "2 35234  98.0697   5.4534 0099684 292.4804  66.5869 14.65458273942183"
      },
      "geometry": {
        "type": "Point",
        "coordinates": [
          112.10578675613442,
          -81.67199644056352
        ]
      }
    },
    {
      "type": "Feature",
      "properties": {
        "norad_id": 35239,
        "name": "FENGYUN 1C DEB",
        "group": "fengyun-1c-debris",
        "lat": -3.3464511203409586,
        "lon": -39.82168603975424,
        "alt_km": 1158.4535363331615,
        "timestamp": "2025-12-05T18:53:13.569626+00:00",
        "meta_object_name": "FENGYUN 1C DEB",
        "meta_object_id": "1999-025DQX",
        "meta_epoch": "2025-12-02T16:20:55.653216",
        "meta_mean_motion": 13.69187111,
        "meta_eccentricity": 0.02297744,
        "meta_inclination": 99.2648,
        "meta_ra_of_asc_node": 137.7373,
        "meta_arg_of_pericenter": 36.5764,
        "meta_mean_anomaly": 325.0829,
        "meta_ephemeris_type": 0,
        "meta_classification_type": "U",
        "meta_norad_cat_id": 35239,
        "meta_element_set_no": 999,
        "meta_rev_at_epoch": 57993,
        "meta_bstar": 0.00086467038,
        "meta_mean_motion_dot": 8.6e-06,
        "meta_mean_motion_ddot": 0,
        "tle_line1": "1 35239U 99025DQX 25336.68119969  .00000860  00000+0  86467-3 0  9992",
        "tle_line2": "2 35239  99.2648 137.7373 0229774  36.5764 325.0829 13.69187111579935"
      },
      "geometry": {
        "type": "Point",
        "coordinates": [
          -39.82168603975424,
          -3.3464511203409586
        ]
      }
    }
  ]
}